[Satellite]
VERSION=1.1
NAME=DMSP 5D-3 F15 (USA 147)
NICKNAME=DMSP 5D-3 F15 (USA 147)
TLE1=1 25991U 99067A   19317.52766362 -.00000106  00000-0 -30499-4 0  9993
TLE2=2 25991  98.9388 282.5984 0010046   3.2843 106.4812 14.16509724 29734
STATUS=0
